ONEWEB-0651             
1 56080U 23043AL  25239.15880035  .00000007  00000+0 -16049-4 0  9993
2 56080  87.9074 317.8855 0002222  99.3701 260.7681 13.15548786118963
ONEWEB-0718             
1 56081U 23043AM  25239.15405734  .00000076  00000+0  16666-3 0  9992
2 56081  87.9068 317.8687 0001699 116.4287 243.7018 13.15548050117774
ONEWEB-0561             
1 56710U 23068A   25238.95839294  .00000022  00000+0  22908-4 0  9995
2 56710  87.9289 333.0993 0002274  89.5144 270.6250 13.20772742110661
ONEWEB-0668             
1 56711U 23068B   25239.12037335  .00000140  00000+0  33199-3 0  9996
2 56711  87.9018 287.3737 0001935 111.3513 248.7824 13.16591575113086
ONEWEB-0676             
1 56712U 23068C   25239.17660353 -.00000005  00000+0 -47760-4 0  9996
2 56712  87.9009 287.3832 0002244  89.1314 271.0074 13.16593542113013
ONEWEB-0677             
1 56713U 23068D   25239.25037153  .00000069  00000+0  13749-3 0  9999
2 56713  87.9288 333.0178 0002208 100.1852 259.9531 13.20773726111005
ONEWEB-0678             
1 56714U 23068E   25239.19841674  .00000177  00000+0  43701-3 0  9995
2 56714  87.9073 317.8323 0001807  88.5206 271.6132 13.15548088110637
ONEWEB-0679             
1 56715U 23068F   25239.06974322  .00000089  00000+0  19963-3 0  9994
2 56715  87.9010 287.3970 0002416 102.9979 257.1421 13.16594040113029
ONEWEB-0680             
1 56716U 23068G   25238.94103076 -.00000205  00000+0 -52690-3 0  9997
2 56716  87.9230 302.6784 0002150 114.6757 245.4601 13.21826050112223
ONEWEB-0681             
1 56717U 23068H   25239.14607323  .00000100  00000+0  20952-3 0  9993
2 56717  87.9239 302.6539 0003016  88.8690 271.2790 13.21825649112242
ONEWEB-0682             
1 56718U 23068J   25239.14849383  .00000138  00000+0  33168-3 0  9992
2 56718  87.9055 317.8645 0002147 112.3014 247.8344 13.15547470110790
ONEWEB-0683             
1 56719U 23068K   25239.16989691 -.00000052  00000+0 -17237-3 0  9998
2 56719  87.9069 317.8370 0002001 107.0739 253.0610 13.15548641110768
ONEWEB-0684             
1 56720U 23068L   25239.17781597 -.00000021  00000+0 -90891-4 0  9990
2 56720  87.9049 317.8370 0000968  53.0319 307.0900 13.15548798110598
ONEWEB-0686             
1 56721U 23068M   25239.05942804 -.00002249  00000+0 -59188-2 0  9994
2 56721  87.9001 287.4303 0001741  99.5633 260.5695 13.16585019113011
ONEWEB-0694             
1 56722U 23068N   25239.10220934 -.00000013  00000+0 -68661-4 0  9999
2 56722  87.9016 287.3485 0002090 107.7908 252.3451 13.16594191113079
ONEWEB-0696             
1 56723U 23068P   25239.21109171  .00000242  00000+0  60754-3 0  9997
2 56723  87.9069 317.8819 0001792  90.2130 269.9206 13.15548564110711
