[{"OBJECT_NAME":"ONEWEB-0651","OBJECT_ID":"2023-043AL","EPOCH":"2025-08-27T03:48:40.350240","MEAN_MOTION":13.15548786,"ECCENTRICITY":0.00022227,"INCLINATION":87.9074,"RA_OF_ASC_NODE":317.8855,"ARG_OF_PERICENTER":99.3701,"MEAN_ANOMALY":260.7681,"EPHEMERIS_TYPE":0,"CLASSIFICATION_TYPE":"U","NORAD_CAT_ID":56080,"ELEMENT_SET_NO":999,"REV_AT_EPOCH":11896,"BSTAR":-1.6048841e-5,"MEAN_MOTION_DOT":7.0e-8,"MEAN_MOTION_DDOT":0},{"OBJECT_NAME":"ONEWEB-0718","OBJECT_ID":"2023-043AM","EPOCH":"2025-08-27T03:41:50.554176","MEAN_MOTION":13.1554805,"ECCENTRICITY":0.00016997,"INCLINATION":87.9068,"RA_OF_ASC_NODE":317.8687,"ARG_OF_PERICENTER":116.4287,"MEAN_ANOMALY":243.7018,"EPHEMERIS_TYPE":0,"CLASSIFICATION_TYPE":"U","NORAD_CAT_ID":56081,"ELEMENT_SET_NO":999,"REV_AT_EPOCH":11777,"BSTAR":0.00016665923,"MEAN_MOTION_DOT":7.6e-7,"MEAN_MOTION_DDOT":0},{"OBJECT_NAME":"ONEWEB-0561","OBJECT_ID":"2023-068A","EPOCH":"2025-08-26T23:00:05.150016","MEAN_MOTION":13.20772742,"ECCENTRICITY":0.00022745,"INCLINATION":87.9289,"RA_OF_ASC_NODE":333.0993,"ARG_OF_PERICENTER":89.5144,"MEAN_ANOMALY":270.625,"EPHEMERIS_TYPE":0,"CLASSIFICATION_TYPE":"U","NORAD_CAT_ID":56710,"ELEMENT_SET_NO":999,"REV_AT_EPOCH":11066,"BSTAR":2.2908019e-5,"MEAN_MOTION_DOT":2.2e-7,"MEAN_MOTION_DDOT":0},{"OBJECT_NAME":"ONEWEB-0668","OBJECT_ID":"2023-068B","EPOCH":"2025-08-27T02:53:20.257440","MEAN_MOTION":13.16591575,"ECCENTRICITY":0.00019359,"INCLINATION":87.9018,"RA_OF_ASC_NODE":287.3737,"ARG_OF_PERICENTER":111.3513,"MEAN_ANOMALY":248.7824,"EPHEMERIS_TYPE":0,"CLASSIFICATION_TYPE":"U","NORAD_CAT_ID":56711,"ELEMENT_SET_NO":999,"REV_AT_EPOCH":11308,"BSTAR":0.00033199385,"MEAN_MOTION_DOT":1.4e-6,"MEAN_MOTION_DDOT":0},{"OBJECT_NAME":"ONEWEB-0676","OBJECT_ID":"2023-068C","EPOCH":"2025-08-27T04:14:18.544992","MEAN_MOTION":13.16593542,"ECCENTRICITY":0.00022444,"INCLINATION":87.9009,"RA_OF_ASC_NODE":287.3832,"ARG_OF_PERICENTER":89.1314,"MEAN_ANOMALY":271.0074,"EPHEMERIS_TYPE":0,"CLASSIFICATION_TYPE":"U","NORAD_CAT_ID":56712,"ELEMENT_SET_NO":999,"REV_AT_EPOCH":11301,"BSTAR":-4.7759564e-5,"MEAN_MOTION_DOT":-5.0e-8,"MEAN_MOTION_DDOT":0},{"OBJECT_NAME":"ONEWEB-0677","OBJECT_ID":"2023-068D","EPOCH":"2025-08-27T06:00:32.100192","MEAN_MOTION":13.20773726,"ECCENTRICITY":0.00022086,"INCLINATION":87.9288,"RA_OF_ASC_NODE":333.0178,"ARG_OF_PERICENTER":100.1852,"MEAN_ANOMALY":259.9531,"EPHEMERIS_TYPE":0,"CLASSIFICATION_TYPE":"U","NORAD_CAT_ID":56713,"ELEMENT_SET_NO":999,"REV_AT_EPOCH":11100,"BSTAR":0.00013749023,"MEAN_MOTION_DOT":6.9e-7,"MEAN_MOTION_DDOT":0},{"OBJECT_NAME":"ONEWEB-0678","OBJECT_ID":"2023-068E","EPOCH":"2025-08-27T04:45:43.206336","MEAN_MOTION":13.15548088,"ECCENTRICITY":0.00018079,"INCLINATION":87.9073,"RA_OF_ASC_NODE":317.8323,"ARG_OF_PERICENTER":88.5206,"MEAN_ANOMALY":271.6132,"EPHEMERIS_TYPE":0,"CLASSIFICATION_TYPE":"U","NORAD_CAT_ID":56714,"ELEMENT_SET_NO":999,"REV_AT_EPOCH":11063,"BSTAR":0.00043700706,"MEAN_MOTION_DOT":1.77e-6,"MEAN_MOTION_DDOT":0},{"OBJECT_NAME":"ONEWEB-0679","OBJECT_ID":"2023-068F","EPOCH":"2025-08-27T01:40:25.814208","MEAN_MOTION":13.1659404,"ECCENTRICITY":0.00024164,"INCLINATION":87.901,"RA_OF_ASC_NODE":287.397,"ARG_OF_PERICENTER":102.9979,"MEAN_ANOMALY":257.1421,"EPHEMERIS_TYPE":0,"CLASSIFICATION_TYPE":"U","NORAD_CAT_ID":56715,"ELEMENT_SET_NO":999,"REV_AT_EPOCH":11302,"BSTAR":0.00019963457,"MEAN_MOTION_DOT":8.9e-7,"MEAN_MOTION_DDOT":0},{"OBJECT_NAME":"ONEWEB-0680","OBJECT_ID":"2023-068G","EPOCH":"2025-08-26T22:35:05.057664","MEAN_MOTION":13.2182605,"ECCENTRICITY":0.00021501,"INCLINATION":87.923,"RA_OF_ASC_NODE":302.6784,"ARG_OF_PERICENTER":114.6757,"MEAN_ANOMALY":245.4601,"EPHEMERIS_TYPE":0,"CLASSIFICATION_TYPE":"U","NORAD_CAT_ID":56716,"ELEMENT_SET_NO":999,"REV_AT_EPOCH":11222,"BSTAR":-0.00052690015,"MEAN_MOTION_DOT":-2.05e-6,"MEAN_MOTION_DDOT":0},{"OBJECT_NAME":"ONEWEB-0681","OBJECT_ID":"2023-068H","EPOCH":"2025-08-27T03:30:20.727072","MEAN_MOTION":13.21825649,"ECCENTRICITY":0.00030168,"INCLINATION":87.9239,"RA_OF_ASC_NODE":302.6539,"ARG_OF_PERICENTER":88.869,"MEAN_ANOMALY":271.279,"EPHEMERIS_TYPE":0,"CLASSIFICATION_TYPE":"U","NORAD_CAT_ID":56717,"ELEMENT_SET_NO":999,"REV_AT_EPOCH":11224,"BSTAR":0.00020951886,"MEAN_MOTION_DOT":1.0e-6,"MEAN_MOTION_DDOT":0},{"OBJECT_NAME":"ONEWEB-0682","OBJECT_ID":"2023-068J","EPOCH":"2025-08-27T03:33:49.866912","MEAN_MOTION":13.1554747,"ECCENTRICITY":0.00021472,"INCLINATION":87.9055,"RA_OF_ASC_NODE":317.8645,"ARG_OF_PERICENTER":112.3014,"MEAN_ANOMALY":247.8344,"EPHEMERIS_TYPE":0,"CLASSIFICATION_TYPE":"U","NORAD_CAT_ID":56718,"ELEMENT_SET_NO":999,"REV_AT_EPOCH":11079,"BSTAR":0.00033168215,"MEAN_MOTION_DOT":1.38e-6,"MEAN_MOTION_DDOT":0},{"OBJECT_NAME":"ONEWEB-0683","OBJECT_ID":"2023-068K","EPOCH":"2025-08-27T04:04:39.093024","MEAN_MOTION":13.15548641,"ECCENTRICITY":0.00020015,"INCLINATION":87.9069,"RA_OF_ASC_NODE":317.837,"ARG_OF_PERICENTER":107.0739,"MEAN_ANOMALY":253.061,"EPHEMERIS_TYPE":0,"CLASSIFICATION_TYPE":"U","NORAD_CAT_ID":56719,"ELEMENT_SET_NO":999,"REV_AT_EPOCH":11076,"BSTAR":-0.00017236923,"MEAN_MOTION_DOT":-5.2e-7,"MEAN_MOTION_DDOT":0},{"OBJECT_NAME":"ONEWEB-0684","OBJECT_ID":"2023-068L","EPOCH":"2025-08-27T04:16:03.299808","MEAN_MOTION":13.15548798,"ECCENTRICITY":9.686e-5,"INCLINATION":87.9049,"RA_OF_ASC_NODE":317.837,"ARG_OF_PERICENTER":53.0319,"MEAN_ANOMALY":307.09,"EPHEMERIS_TYPE":0,"CLASSIFICATION_TYPE":"U","NORAD_CAT_ID":56720,"ELEMENT_SET_NO":999,"REV_AT_EPOCH":11059,"BSTAR":-9.0890737e-5,"MEAN_MOTION_DOT":-2.1e-7,"MEAN_MOTION_DDOT":0},{"OBJECT_NAME":"ONEWEB-0686","OBJECT_ID":"2023-068M","EPOCH":"2025-08-27T01:25:34.582656","MEAN_MOTION":13.16585019,"ECCENTRICITY":0.00017416,"INCLINATION":87.9001,"RA_OF_ASC_NODE":287.4303,"ARG_OF_PERICENTER":99.5633,"MEAN_ANOMALY":260.5695,"EPHEMERIS_TYPE":0,"CLASSIFICATION_TYPE":"U","NORAD_CAT_ID":56721,"ELEMENT_SET_NO":999,"REV_AT_EPOCH":11301,"BSTAR":-0.0059188407,"MEAN_MOTION_DOT":-2.249e-5,"MEAN_MOTION_DDOT":0},{"OBJECT_NAME":"ONEWEB-0694","OBJECT_ID":"2023-068N","EPOCH":"2025-08-27T02:27:10.886976","MEAN_MOTION":13.16594191,"ECCENTRICITY":0.00020902,"INCLINATION":87.9016,"RA_OF_ASC_NODE":287.3485,"ARG_OF_PERICENTER":107.7908,"MEAN_ANOMALY":252.3451,"EPHEMERIS_TYPE":0,"CLASSIFICATION_TYPE":"U","NORAD_CAT_ID":56722,"ELEMENT_SET_NO":999,"REV_AT_EPOCH":11307,"BSTAR":-6.8660749e-5,"MEAN_MOTION_DOT":-1.3e-7,"MEAN_MOTION_DDOT":0},{"OBJECT_NAME":"ONEWEB-0696","OBJECT_ID":"2023-068P","EPOCH":"2025-08-27T05:03:58.323744","MEAN_MOTION":13.15548564,"ECCENTRICITY":0.0001792,"INCLINATION":87.9069,"RA_OF_ASC_NODE":317.8819,"ARG_OF_PERICENTER":90.213,"MEAN_ANOMALY":269.9206,"EPHEMERIS_TYPE":0,"CLASSIFICATION_TYPE":"U","NORAD_CAT_ID":56723,"ELEMENT_SET_NO":999,"REV_AT_EPOCH":11071,"BSTAR":0.00060753553,"MEAN_MOTION_DOT":2.42e-6,"MEAN_MOTION_DDOT":0}]
